{
  "type": "FeatureCollection",
  "features": [
    {
      "type": "Feature",
      "properties": {
        "norad_id": 66481,
        "name": "STARLINK-35698",
        "group": "last-30-days",
        "lat": 5.946750471552853,
        "lon": -110.27802114428883,
        "alt_km": 414.15799039802914,
        "timestamp": "2025-12-11T20:41:13.846400+00:00",
        "meta_object_name": "STARLINK-35698",
        "meta_object_id": "2025-262AB",
        "meta_epoch": "2025-12-11T15:18:52.907040",
        "meta_mean_motion": 15.50619658,
        "meta_eccentricity": 0.00014945,
        "meta_inclination": 43.0004,
        "meta_ra_of_asc_node": 77.4498,
        "meta_arg_of_pericenter": 285.2045,
        "meta_mean_anomaly": 74.865,
        "meta_ephemeris_type": 0,
        "meta_classification_type": "U",
        "meta_norad_cat_id": 66481,
        "meta_element_set_no": 999,
        "meta_rev_at_epoch": 539,
        "meta_bstar": 0.0020280216,
        "meta_mean_motion_dot": 0.00120658,
        "meta_mean_motion_ddot": 0,
        "tle_line1": "1 66481U 25262AB  25345.63811235  .00120658  00000+0  20280-2 0  9995",
        "tle_line2": "2 66481  43.0004  77.4498 0001494 285.2045  74.8650 15.50619658  5394"
      },
      "geometry": {
        "type": "Point",
        "coordinates": [
          -110.27802114428883,
          5.946750471552853
        ]
      }
    },
    {
      "type": "Feature",
      "properties": {
        "norad_id": 66482,
        "name": "STARLINK-35648",
        "group": "last-30-days",
        "lat": 4.660089358058536,
        "lon": -108.88334215358151,
        "alt_km": 414.19932498557955,
        "timestamp": "2025-12-11T20:41:13.846410+00:00",
        "meta_object_name": "STARLINK-35648",
        "meta_object_id": "2025-262AC",
        "meta_epoch": "2025-12-11T15:18:23.183712",
        "meta_mean_motion": 15.50608502,
        "meta_eccentricity": 0.00016735,
        "meta_inclination": 43.0001,
        "meta_ra_of_asc_node": 77.4468,
        "meta_arg_of_pericenter": 270.6994,
        "meta_mean_anomaly": 89.3674,
        "meta_ephemeris_type": 0,
        "meta_classification_type": "U",
        "meta_norad_cat_id": 66482,
        "meta_element_set_no": 999,
        "meta_rev_at_epoch": 523,
        "meta_bstar": 0.00095038499,
        "meta_mean_motion_dot": 0.00055871,
        "meta_mean_motion_ddot": 0,
        "tle_line1": "1 66482U 25262AC  25345.63776833  .00055871  00000+0  95038-3 0  9998",
        "tle_line2": "2 66482  43.0001  77.4468 0001673 270.6994  89.3674 15.50608502  5235"
      },
      "geometry": {
        "type": "Point",
        "coordinates": [
          -108.88334215358151,
          4.660089358058536
        ]
      }
    },
    {
      "type": "Feature",
      "properties": {
        "norad_id": 66483,
        "name": "STARLINK-35654",
        "group": "last-30-days",
        "lat": 3.3246486354401474,
        "lon": -107.44492198338885,
        "alt_km": 413.83374838155123,
        "timestamp": "2025-12-11T20:41:13.846420+00:00",
        "meta_object_name": "STARLINK-35654",
        "meta_object_id": "2025-262AD",
        "meta_epoch": "2025-12-11T15:17:53.336832",
        "meta_mean_motion": 15.50642502,
        "meta_eccentricity": 0.00021538,
        "meta_inclination": 43.0001,
        "meta_ra_of_asc_node": 77.4431,
        "meta_arg_of_pericenter": 257.4372,
        "meta_mean_anomaly": 102.6247,
        "meta_ephemeris_type": 0,
        "meta_classification_type": "U",
        "meta_norad_cat_id": 66483,
        "meta_element_set_no": 999,
        "meta_rev_at_epoch": 539,
        "meta_bstar": 0.002466252,
        "meta_mean_motion_dot": 0.00147434,
        "meta_mean_motion_ddot": 0,
        "tle_line1": "1 66483U 25262AD  25345.63742288  .00147434  00000+0  24663-2 0  9998",
        "tle_line2": "2 66483  43.0001  77.4431 0002153 257.4372 102.6247 15.50642502  5393"
      },
      "geometry": {
        "type": "Point",
        "coordinates": [
          -107.44492198338885,
          3.3246486354401474
        ]
      }
    },
    {
      "type": "Feature",
      "properties": {
        "norad_id": 66484,
        "name": "STARLINK-35371",
        "group": "last-30-days",
        "lat": 2.0162903749510313,
        "lon": -106.0394591158705,
        "alt_km": 414.4709737284393,
        "timestamp": "2025-12-11T20:41:13.846430+00:00",
        "meta_object_name": "STARLINK-35371",
        "meta_object_id": "2025-262AE",
        "meta_epoch": "2025-12-11T15:17:24.038592",
        "meta_mean_motion": 15.50644165,
        "meta_eccentricity": 0.00013158,
        "meta_inclination": 43.0001,
        "meta_ra_of_asc_node": 77.4416,
        "meta_arg_of_pericenter": 288.2599,
        "meta_mean_anomaly": 71.8118,
        "meta_ephemeris_type": 0,
        "meta_classification_type": "U",
        "meta_norad_cat_id": 66484,
        "meta_element_set_no": 999,
        "meta_rev_at_epoch": 539,
        "meta_bstar": 0.0028524623,
        "meta_mean_motion_dot": 0.00171103,
        "meta_mean_motion_ddot": 0,
        "tle_line1": "1 66484U 25262AE  25345.63708378  .00171103  00000+0  28525-2 0  9992",
        "tle_line2": "2 66484  43.0001  77.4416 0001315 288.2599  71.8118 15.50644165  5390"
      },
      "geometry": {
        "type": "Point",
        "coordinates": [
          -106.0394591158705,
          2.0162903749510313
        ]
      }
    },
    {
      "type": "Feature",
      "properties": {
        "norad_id": 66485,
        "name": "STARLINK-34774",
        "group": "last-30-days",
        "lat": -7.272691821702339,
        "lon": 122.60012789309314,
        "alt_km": 444.04962722520213,
        "timestamp": "2025-12-11T20:41:13.846441+00:00",
        "meta_object_name": "STARLINK-34774",
        "meta_object_id": "2025-263A",
        "meta_epoch": "2025-12-11T14:00:01.999872",
        "meta_mean_motion": 15.40769534,
        "meta_eccentricity": 0.00019928,
        "meta_inclination": 43.0008,
        "meta_ra_of_asc_node": 132.0773,
        "meta_arg_of_pericenter": 289.8269,
        "meta_mean_anomaly": 312.3679,
        "meta_ephemeris_type": 0,
        "meta_classification_type": "U",
        "meta_norad_cat_id": 66485,
        "meta_element_set_no": 999,
        "meta_rev_at_epoch": 545,
        "meta_bstar": -0.0041640948,
        "meta_mean_motion_dot": -0.00170818,
        "meta_mean_motion_ddot": 0,
        "tle_line1": "1 66485U 25263A   25345.58335648 -.00170818  00000+0 -41641-2 0  9992",
        "tle_line2": "2 66485  43.0008 132.0773 0001992 289.8269 312.3679 15.40769534  5453"
      },
      "geometry": {
        "type": "Point",
        "coordinates": [
          122.60012789309314,
          -7.272691821702339
        ]
      }
    },
    {
      "type": "Feature",
      "properties": {
        "norad_id": 66486,
        "name": "STARLINK-34844",
        "group": "last-30-days",
        "lat": 35.40749001976712,
        "lon": -179.98210991250116,
        "alt_km": 410.2521301565239,
        "timestamp": "2025-12-11T20:41:13.846453+00:00",
        "meta_object_name": "STARLINK-34844",
        "meta_object_id": "2025-263B",
        "meta_epoch": "2025-12-11T14:00:01.999872",
        "meta_mean_motion": 15.50627361,
        "meta_eccentricity": 0.00013185,
        "meta_inclination": 43.0003,
        "meta_ra_of_asc_node": 131.9326,
        "meta_arg_of_pericenter": 272.2051,
        "meta_mean_anomaly": 28.9395,
        "meta_ephemeris_type": 0,
        "meta_classification_type": "U",
        "meta_norad_cat_id": 66486,
        "meta_element_set_no": 999,
        "meta_rev_at_epoch": 540,
        "meta_bstar": -0.0029059336,
        "meta_mean_motion_dot": -0.00167509,
        "meta_mean_motion_ddot": 0,
        "tle_line1": "1 66486U 25263B   25345.58335648 -.00167509  00000+0 -29059-2 0  9995",
        "tle_line2": "2 66486  43.0003 131.9326 0001318 272.2051  28.9395 15.50627361  5400"
      },
      "geometry": {
        "type": "Point",
        "coordinates": [
          -179.98210991250116,
          35.40749001976712
        ]
      }
    },
    {
      "type": "Feature",
      "properties": {
        "norad_id": 66487,
        "name": "STARLINK-34733",
        "group": "last-30-days",
        "lat": 34.77253545950204,
        "lon": 178.47141381234272,
        "alt_km": 418.68443841571207,
        "timestamp": "2025-12-11T20:41:13.846463+00:00",
        "meta_object_name": "STARLINK-34733",
        "meta_object_id": "2025-263C",
        "meta_epoch": "2025-12-11T14:00:01.999872",
        "meta_mean_motion": 15.48981186,
        "meta_eccentricity": 0.00014407,
        "meta_inclination": 43.0004,
        "meta_ra_of_asc_node": 131.9304,
        "meta_arg_of_pericenter": 272.311,
        "meta_mean_anomaly": 29.6701,
        "meta_ephemeris_type": 0,
        "meta_classification_type": "U",
        "meta_norad_cat_id": 66487,
        "meta_element_set_no": 999,
        "meta_rev_at_epoch": 545,
        "meta_bstar": -0.042556684,
        "meta_mean_motion_dot": -0.02094616,
        "meta_mean_motion_ddot": 0,
        "tle_line1": "1 66487U 25263C   25345.58335648 -.02094616  00000+0 -42557-1 0  9993",
        "tle_line2": "2 66487  43.0004 131.9304 0001440 272.3110  29.6701 15.48981186  5450"
      },
      "geometry": {
        "type": "Point",
        "coordinates": [
          178.47141381234272,
          34.77253545950204
        ]
      }
    }
  ]
}